CCSDS_OMM_VERS = 2.0
CREATION_DATE  = 
ORIGINATOR     = 

OBJECT_NAME    = KUIPER-00268
OBJECT_ID      = 2026-030AC
CENTER_NAME    = EARTH
REF_FRAME      = TEME
TIME_SYSTEM    = UTC
MEAN_ELEMENT_THEORY = SGP/SGP4

EPOCH          = 2026-03-10T14:27:43.248960
MEAN_MOTION    = 15.36105077
ECCENTRICITY   = .0002815
INCLINATION    = 51.8848
RA_OF_ASC_NODE = 214.6994
ARG_OF_PERICENTER = 42.7790
MEAN_ANOMALY   = 317.3415

EPHEMERIS_TYPE = 0
CLASSIFICATION_TYPE = U
NORAD_CAT_ID   = 67790
ELEMENT_SET_NO = 999
REV_AT_EPOCH   = 523
BSTAR          = .12302E-2
MEAN_MOTION_DOT = .43807E-3
MEAN_MOTION_DDOT = 0

CCSDS_OMM_VERS = 2.0
CREATION_DATE  = 
ORIGINATOR     = 

OBJECT_NAME    = KUIPER-00270
OBJECT_ID      = 2026-030AD
CENTER_NAME    = EARTH
REF_FRAME      = TEME
TIME_SYSTEM    = UTC
MEAN_ELEMENT_THEORY = SGP/SGP4

EPOCH          = 2026-03-10T15:01:35.657760
MEAN_MOTION    = 15.34701925
ECCENTRICITY   = .0010485
INCLINATION    = 51.8803
RA_OF_ASC_NODE = 214.8398
ARG_OF_PERICENTER = 60.2470
MEAN_ANOMALY   = 299.9557

EPHEMERIS_TYPE = 0
CLASSIFICATION_TYPE = U
NORAD_CAT_ID   = 67791
ELEMENT_SET_NO = 999
REV_AT_EPOCH   = 523
BSTAR          = .59152E-3
MEAN_MOTION_DOT = .199E-3
MEAN_MOTION_DDOT = 0

CCSDS_OMM_VERS = 2.0
CREATION_DATE  = 
ORIGINATOR     = 

OBJECT_NAME    = KUIPER-00274
OBJECT_ID      = 2026-030AE
CENTER_NAME    = EARTH
REF_FRAME      = TEME
TIME_SYSTEM    = UTC
MEAN_ELEMENT_THEORY = SGP/SGP4

EPOCH          = 2026-03-10T20:00:00.999360
MEAN_MOTION    = 15.29877388
ECCENTRICITY   = .0017977
INCLINATION    = 51.8836
RA_OF_ASC_NODE = 214.3108
ARG_OF_PERICENTER = 72.8445
MEAN_ANOMALY   = 125.5438

EPHEMERIS_TYPE = 0
CLASSIFICATION_TYPE = U
NORAD_CAT_ID   = 67792
ELEMENT_SET_NO = 999
REV_AT_EPOCH   = 424
BSTAR          = .27232E-2
MEAN_MOTION_DOT = .80804E-3
MEAN_MOTION_DDOT = 0

CCSDS_OMM_VERS = 2.0
CREATION_DATE  = 
ORIGINATOR     = 

OBJECT_NAME    = KUIPER-00275
OBJECT_ID      = 2026-030AF
CENTER_NAME    = EARTH
REF_FRAME      = TEME
TIME_SYSTEM    = UTC
MEAN_ELEMENT_THEORY = SGP/SGP4

EPOCH          = 2026-03-10T18:04:58.459296
MEAN_MOTION    = 15.34816533
ECCENTRICITY   = .0009196
INCLINATION    = 51.8838
RA_OF_ASC_NODE = 214.2065
ARG_OF_PERICENTER = 56.2540
MEAN_ANOMALY   = 303.9321

EPHEMERIS_TYPE = 0
CLASSIFICATION_TYPE = U
NORAD_CAT_ID   = 67793
ELEMENT_SET_NO = 999
REV_AT_EPOCH   = 525
BSTAR          = .1076E-2
MEAN_MOTION_DOT = .36718E-3
MEAN_MOTION_DDOT = 0

CCSDS_OMM_VERS = 2.0
CREATION_DATE  = 
ORIGINATOR     = 

OBJECT_NAME    = KUIPER-00276
OBJECT_ID      = 2026-030AG
CENTER_NAME    = EARTH
REF_FRAME      = TEME
TIME_SYSTEM    = UTC
MEAN_ELEMENT_THEORY = SGP/SGP4

EPOCH          = 2026-03-10T19:12:51.628320
MEAN_MOTION    = 15.30169746
ECCENTRICITY   = .0019013
INCLINATION    = 51.8830
RA_OF_ASC_NODE = 214.4994
ARG_OF_PERICENTER = 70.0728
MEAN_ANOMALY   = 290.2302

EPHEMERIS_TYPE = 0
CLASSIFICATION_TYPE = U
NORAD_CAT_ID   = 67794
ELEMENT_SET_NO = 999
REV_AT_EPOCH   = 525
BSTAR          = .18494E-2
MEAN_MOTION_DOT = .55102E-3
MEAN_MOTION_DDOT = 0

CCSDS_OMM_VERS = 2.0
CREATION_DATE  = 
ORIGINATOR     = 

OBJECT_NAME    = KUIPER-00279
OBJECT_ID      = 2026-030AH
CENTER_NAME    = EARTH
REF_FRAME      = TEME
TIME_SYSTEM    = UTC
MEAN_ELEMENT_THEORY = SGP/SGP4

EPOCH          = 2026-03-10T14:44:23.921664
MEAN_MOTION    = 15.35471502
ECCENTRICITY   = .0006266
INCLINATION    = 51.8797
RA_OF_ASC_NODE = 214.7615
ARG_OF_PERICENTER = 47.5289
MEAN_ANOMALY   = 312.6226

EPHEMERIS_TYPE = 0
CLASSIFICATION_TYPE = U
NORAD_CAT_ID   = 67795
ELEMENT_SET_NO = 999
REV_AT_EPOCH   = 523
BSTAR          = .81696E-3
MEAN_MOTION_DOT = .28328E-3
MEAN_MOTION_DDOT = 0

CCSDS_OMM_VERS = 2.0
CREATION_DATE  = 
ORIGINATOR     = 

OBJECT_NAME    = CREW DRAGON 12
OBJECT_ID      = 2026-031A
CENTER_NAME    = EARTH
REF_FRAME      = TEME
TIME_SYSTEM    = UTC
MEAN_ELEMENT_THEORY = SGP/SGP4

EPOCH          = 2026-03-10T11:33:06.281280
MEAN_MOTION    = 15.48562436
ECCENTRICITY   = .0007951
INCLINATION    = 51.6323
RA_OF_ASC_NODE = 68.4424
ARG_OF_PERICENTER = 177.3714
MEAN_ANOMALY   = 182.7318

EPHEMERIS_TYPE = 0
CLASSIFICATION_TYPE = U
NORAD_CAT_ID   = 67796
ELEMENT_SET_NO = 999
REV_AT_EPOCH   = 55634
BSTAR          = .17349E-3
MEAN_MOTION_DOT = .8982E-4
MEAN_MOTION_DDOT = 0

CCSDS_OMM_VERS = 2.0
CREATION_DATE  = 
ORIGINATOR     = 

OBJECT_NAME    = STARLINK-36800
OBJECT_ID      = 2026-032A
CENTER_NAME    = EARTH
REF_FRAME      = TEME
TIME_SYSTEM    = UTC
MEAN_ELEMENT_THEORY = SGP/SGP4

EPOCH          = 2026-03-10T18:33:50.218560
MEAN_MOTION    = 15.75245736
ECCENTRICITY   = .000181
INCLINATION    = 97.2845
RA_OF_ASC_NODE = 256.3086
ARG_OF_PERICENTER = 72.6422
MEAN_ANOMALY   = 287.5041

EPHEMERIS_TYPE = 0
CLASSIFICATION_TYPE = U
NORAD_CAT_ID   = 67797
ELEMENT_SET_NO = 999
REV_AT_EPOCH   = 495
BSTAR          = .13566E-2
MEAN_MOTION_DOT = .207718E-2
MEAN_MOTION_DDOT = 0

CCSDS_OMM_VERS = 2.0
CREATION_DATE  = 
ORIGINATOR     = 

OBJECT_NAME    = STARLINK-36798
OBJECT_ID      = 2026-032B
CENTER_NAME    = EARTH
REF_FRAME      = TEME
TIME_SYSTEM    = UTC
MEAN_ELEMENT_THEORY = SGP/SGP4

EPOCH          = 2026-03-10T19:41:56.184288
MEAN_MOTION    = 15.75268257
ECCENTRICITY   = .0001343
INCLINATION    = 97.2855
RA_OF_ASC_NODE = 256.3977
ARG_OF_PERICENTER = 74.6621
MEAN_ANOMALY   = 285.4793

EPHEMERIS_TYPE = 0
CLASSIFICATION_TYPE = U
NORAD_CAT_ID   = 67798
ELEMENT_SET_NO = 999
REV_AT_EPOCH   = 496
BSTAR          = .16101E-2
MEAN_MOTION_DOT = .247973E-2
MEAN_MOTION_DDOT = 0

CCSDS_OMM_VERS = 2.0
CREATION_DATE  = 
ORIGINATOR     = 

OBJECT_NAME    = STARLINK-36804
OBJECT_ID      = 2026-032C
CENTER_NAME    = EARTH
REF_FRAME      = TEME
TIME_SYSTEM    = UTC
MEAN_ELEMENT_THEORY = SGP/SGP4

EPOCH          = 2026-03-10T20:02:46.279104
MEAN_MOTION    = 15.75255282
ECCENTRICITY   = .0001478
INCLINATION    = 97.2844
RA_OF_ASC_NODE = 256.3778
ARG_OF_PERICENTER = 83.7742
MEAN_ANOMALY   = 276.3691

EPHEMERIS_TYPE = 0
CLASSIFICATION_TYPE = U
NORAD_CAT_ID   = 67799
ELEMENT_SET_NO = 999
REV_AT_EPOCH   = 496
BSTAR          = .14077E-2
MEAN_MOTION_DOT = .215844E-2
MEAN_MOTION_DDOT = 0

CCSDS_OMM_VERS = 2.0
CREATION_DATE  = 
ORIGINATOR     = 

OBJECT_NAME    = STARLINK-36354
OBJECT_ID      = 2026-032D
CENTER_NAME    = EARTH
REF_FRAME      = TEME
TIME_SYSTEM    = UTC
MEAN_ELEMENT_THEORY = SGP/SGP4

EPOCH          = 2026-03-10T19:47:01.198752
MEAN_MOTION    = 15.75241433
ECCENTRICITY   = .000154
INCLINATION    = 97.2854
RA_OF_ASC_NODE = 256.3945
ARG_OF_PERICENTER = 55.4415
MEAN_ANOMALY   = 304.6995

EPHEMERIS_TYPE = 0
CLASSIFICATION_TYPE = U
NORAD_CAT_ID   = 67800
ELEMENT_SET_NO = 999
REV_AT_EPOCH   = 496
BSTAR          = .12856E-2
MEAN_MOTION_DOT = .196537E-2
MEAN_MOTION_DDOT = 0

CCSDS_OMM_VERS = 2.0
CREATION_DATE  = 
ORIGINATOR     = 

OBJECT_NAME    = STARLINK-36773
OBJECT_ID      = 2026-032E
CENTER_NAME    = EARTH
REF_FRAME      = TEME
TIME_SYSTEM    = UTC
MEAN_ELEMENT_THEORY = SGP/SGP4

EPOCH          = 2026-03-10T19:58:11.978112
MEAN_MOTION    = 15.75228301
ECCENTRICITY   = .00015
INCLINATION    = 97.2849
RA_OF_ASC_NODE = 256.3820
ARG_OF_PERICENTER = 79.8825
MEAN_ANOMALY   = 280.2610

EPHEMERIS_TYPE = 0
CLASSIFICATION_TYPE = U
NORAD_CAT_ID   = 67801
ELEMENT_SET_NO = 999
REV_AT_EPOCH   = 496
BSTAR          = .10168E-2
MEAN_MOTION_DOT = .154557E-2
MEAN_MOTION_DDOT = 0

