KUIPER-00268            
1 67790U 26030AC  26069.60258390  .00043807  00000+0  12302-2 0  9997
2 67790  51.8848 214.6994 0002815  42.7790 317.3415 15.36105077  5234
KUIPER-00270            
1 67791U 26030AD  26069.62610715  .00019900  00000+0  59152-3 0  9995
2 67791  51.8803 214.8398 0010485  60.2470 299.9557 15.34701925  5232
KUIPER-00274            
1 67792U 26030AE  26069.83334490  .00080804  00000+0  27232-2 0  9996
2 67792  51.8836 214.3108 0017977  72.8445 125.5438 15.29877388  4240
KUIPER-00275            
1 67793U 26030AF  26069.75345439  .00036718  00000+0  10760-2 0  9996
2 67793  51.8838 214.2065 0009196  56.2540 303.9321 15.34816533  5256
KUIPER-00276            
1 67794U 26030AG  26069.80059755  .00055102  00000+0  18494-2 0  9996
2 67794  51.8830 214.4994 0019013  70.0728 290.2302 15.30169746  5253
KUIPER-00279            
1 67795U 26030AH  26069.61416576  .00028328  00000+0  81696-3 0  9999
2 67795  51.8797 214.7615 0006266  47.5289 312.6226 15.35471502  5239
CREW DRAGON 12          
1 67796U 26031A   26069.48132270  .00008982  00000+0  17349-3 0  9990
2 67796  51.6323  68.4424 0007951 177.3714 182.7318 15.48562436556344
STARLINK-36800          
1 67797U 26032A   26069.77349790  .00207718  00000+0  13566-2 0  9995
2 67797  97.2845 256.3086 0001810  72.6422 287.5041 15.75245736  4956
STARLINK-36798          
1 67798U 26032B   26069.82078917  .00247973  00000+0  16101-2 0  9997
2 67798  97.2855 256.3977 0001343  74.6621 285.4793 15.75268257  4966
STARLINK-36804          
1 67799U 26032C   26069.83525786  .00215844  00000+0  14077-2 0  9992
2 67799  97.2844 256.3778 0001478  83.7742 276.3691 15.75255282  4968
STARLINK-36354          
1 67800U 26032D   26069.82431943  .00196537  00000+0  12856-2 0  9995
2 67800  97.2854 256.3945 0001540  55.4415 304.6995 15.75241433  4966
STARLINK-36773          
1 67801U 26032E   26069.83208308  .00154557  00000+0  10168-2 0  9994
2 67801  97.2849 256.3820 0001500  79.8825 280.2610 15.75228301  4966
